[{"OBJECT_NAME":"STARLINK-30439","OBJECT_ID":"2023-144D","EPOCH":"2026-03-08T16:19:46.591104","MEAN_MOTION":15.27575417,"ECCENTRICITY":0.00011363,"INCLINATION":43.0006,"RA_OF_ASC_NODE":290.8518,"ARG_OF_PERICENTER":244.5416,"MEAN_ANOMALY":115.5319,"EPHEMERIS_TYPE":0,"CLASSIFICATION_TYPE":"U","NORAD_CAT_ID":57867,"ELEMENT_SET_NO":999,"REV_AT_EPOCH":13749,"BSTAR":0.00071117837,"MEAN_MOTION_DOT":0.00019357,"MEAN_MOTION_DDOT":0},{"OBJECT_NAME":"FALCONSAT-10","OBJECT_ID":"2023-174AM","EPOCH":"2026-03-09T16:51:34.085376","MEAN_MOTION":15.26670596,"ECCENTRICITY":0.00089318,"INCLINATION":97.3865,"RA_OF_ASC_NODE":145.7938,"ARG_OF_PERICENTER":169.5942,"MEAN_ANOMALY":190.5483,"EPHEMERIS_TYPE":0,"CLASSIFICATION_TYPE":"U","NORAD_CAT_ID":58291,"ELEMENT_SET_NO":999,"REV_AT_EPOCH":12958,"BSTAR":0.00025968794,"MEAN_MOTION_DOT":6.748e-5,"MEAN_MOTION_DDOT":0}]
