STARLINK-30439          
1 57867U 23144D   26067.68040036  .00019357  00000+0  71118-3 0  9990
2 57867  43.0006 290.8518 0001136 244.5416 115.5319 15.27575417137491
FALCONSAT-10            
1 58291U 23174AM  26068.70247784  .00006748  00000+0  25969-3 0  9991
2 58291  97.3865 145.7938 0008932 169.5942 190.5483 15.26670596129582
